IRIDIUM 72 [+]          
1 25343U 98032B   18112.47834844 -.00000013  00000-0 -11567-4 0  9994
2 25343  86.3925  94.6178 0002291  83.6247 276.5210 14.34214771 43432
IRIDIUM 73 [-]          
1 25344U 98032C   18112.50421904  .00000156  00000-0  35597-4 0  9993
2 25344  86.4419  72.2319 0002880  92.5775 267.5758 14.49108989 52346
IRIDIUM 75 [+]          
1 25346U 98032E   18112.48470245 -.00000014  00000-0 -12087-4 0  9998
2 25346  86.3927  94.8787 0002260  84.5516 275.5937 14.34213479 44003
IRIDIUM 76 [P]          
1 25432U 98048B   18112.55860693 -.00000014  00000-0 -10993-4 0  9993
2 25432  86.4227 126.2206 0002681  90.5168 269.6337 14.38601080 29954
IRIDIUM 82 [-]          
1 25467U 98051A   18112.42974500  .00000698  00000-0  50165-4 0  9995
2 25467  86.4026 239.3784 0181830   9.5120 350.9471 14.89843174 32874
IRIDIUM 81 [+]          
1 25468U 98051B   18112.48922858  .00000128  00000-0  35251-4 0  9998
2 25468  86.4230 252.5137 0002182 100.4165 259.7279 14.38607515 27319
IRIDIUM 80 [+]          
1 25469U 98051C   18112.53131299  .00000115  00000-0  34106-4 0  9990
2 25469  86.3959 252.7395 0001999  78.6504 334.9618 14.34213398 27178
IRIDIUM 2 [-]           
1 25527U 98066A   18112.37188797  .00001113  00000-0  53867-4 0  9992
2 25527  85.5342 209.6234 0010399  45.8199 314.3894 15.17332549 64747
IRIDIUM 86 [+]          
1 25528U 98066B   18112.39708144  .00000173  00000-0  54689-4 0  9997
2 25528  86.4000 220.4876 0002946  82.5764 277.5767 14.34217884 23686
IRIDIUM 84 [+]          
1 25530U 98066D   18112.42877368  .00000185  00000-0  59064-4 0  9994
2 25530  86.4001 220.6441 0002261  99.0444 261.1008 14.34216624 21325
IRIDIUM 83 [+]          
1 25531U 98066E   18112.39078834  .00000182  00000-0  58079-4 0  9994
2 25531  86.4004 220.7981 0002192  97.4902 262.6543 14.34214958 18675
IRIDIUM 20 [P]          
1 25577U 98074A   18112.53967518 -.00000023  00000-0 -14165-4 0  9999
2 25577  86.4190 126.1251 0002589 104.4465 255.7021 14.38607076 12773
IRIDIUM 11 [+]          
1 25578U 98074B   18112.56724863  .00000016  00000-0 -12010-5 0  9996
2 25578  86.3932 126.3313 0002323 107.0984   5.5149 14.34215992 21746
IRIDIUM 14 [+]          
1 25777U 99032A   18112.50372532 -.00000017  00000-0 -13068-4 0  9993
2 25777  86.3927  94.6974 0002361  83.3840 276.7625 14.34214488999014
IRIDIUM 21 [+]          
1 25778U 99032B   18112.47200939 -.00000011  00000-0 -10832-4 0  9991
2 25778  86.3926  94.7253 0002179  87.6347 272.5098 14.34214780992444
IRIDIUM 91 [+]          
1 27372U 02005A   18112.58043880  .00000081  00000-0  21985-4 0  9995
2 27372  86.3977 157.9028 0002794  96.6952 263.4561 14.34221580855975
IRIDIUM 90 [B]          
1 27373U 02005B   18112.54944678  .00121622  19646-5  70423-3 0  9993
2 27373  86.4379 218.0179 0329703 191.2497 168.1262 15.29790821856320
IRIDIUM 94 [P]          
1 27374U 02005C   18108.24475940  .58469441 -85873-7  19282-4 0  9999
2 27374  86.2998 124.3001 0093641 344.5221  17.2855 16.61324468860162
IRIDIUM 95 [+]          
1 27375U 02005D   18112.54872759  .00000083  00000-0  22603-4 0  9999
2 27375  86.3973 157.9264 0002685 110.6976 249.4507 14.34220658855258
IRIDIUM 96 [P]          
1 27376U 02005E   18112.28551191  .00042805 -99422-6  44505-3 0  9990
2 27376  86.3829 182.3667 0301635  66.2865 296.9715 15.24403863861456
IRIDIUM 97 [+]          
1 27450U 02031A   18112.58386624  .00000149  00000-0  42341-4 0  9991
2 27450  86.4282 189.6042 0002238  99.3616 260.7835 14.38604737834592
IRIDIUM 98 [+]          
1 27451U 02031B   18112.45753608  .00000113  00000-0  33216-4 0  9990
2 27451  86.3952 252.8455 0002456  86.9090 273.2387 14.34212971835635
